[{"OBJECT_NAME":"OBJECT E","OBJECT_ID":"2024-153E","EPOCH":"2026-03-09T23:09:09.513216","MEAN_MOTION":15.24133271,"ECCENTRICITY":4.895e-5,"INCLINATION":97.6591,"RA_OF_ASC_NODE":203.8355,"ARG_OF_PERICENTER":171.5214,"MEAN_ANOMALY":188.6031,"EPHEMERIS_TYPE":0,"CLASSIFICATION_TYPE":"U","NORAD_CAT_ID":60749,"ELEMENT_SET_NO":999,"REV_AT_EPOCH":8470,"BSTAR":0.00081752478,"MEAN_MOTION_DOT":0.00019841,"MEAN_MOTION_DDOT":0},{"OBJECT_NAME":"OBJECT C","OBJECT_ID":"2025-197C","EPOCH":"2026-03-09T23:04:01.696800","MEAN_MOTION":15.23580455,"ECCENTRICITY":0.00147185,"INCLINATION":97.4111,"RA_OF_ASC_NODE":257.1199,"ARG_OF_PERICENTER":4.9748,"MEAN_ANOMALY":355.1632,"EPHEMERIS_TYPE":0,"CLASSIFICATION_TYPE":"U","NORAD_CAT_ID":65490,"ELEMENT_SET_NO":999,"REV_AT_EPOCH":2820,"BSTAR":0.00026991529,"MEAN_MOTION_DOT":6.405e-5,"MEAN_MOTION_DDOT":0}]
